NORAD_CAT_ID,OBJECT_NAME,OBJECT_TYPE,EPOCH,MEAN_MOTION,ECCENTRICITY,INCLINATION,RA_OF_ASC_NODE,ARG_OF_PERICENTER,MEAN_ANOMALY,BSTAR,MEAN_MOTION_DOT,MEAN_MOTION_DDOT,TLE_LINE0,TLE_LINE1,TLE_LINE2,SEMIMAJOR_AXIS,PERIOD,APOGEE,PERIGEE,DECAYED
55934.0,STARLINK-5927,PAYLOAD,2023-10-07 11:13:33,14.98348736,0.000309,70.001,353.8381,263.1899,96.8908,0.00023837,2.754e-05,0.0,0 STARLINK-5927,1 55934U 23037W   23280.46774929  .00002754  00000-0  23837-3 0  9998,2 55934  70.0010 353.8381 0003090 263.1899  96.8908 14.98348736 31879,6950.135,96.106,574.148,569.852,0.0
55934.0,STARLINK-5927,PAYLOAD,2023-10-07 12:49:42,14.98332483,0.0002791,70.0015,353.6707,261.349,98.7353,9.7696e-05,1.073e-05,0.0,0 STARLINK-5927,1 55934U 23037W   23280.53452253  .00001073  00000-0  97696-4 0  9997,2 55934  70.0015 353.6707 0002791 261.3490  98.7353 14.98332483 31549,6950.185,96.107,573.99,570.11,0.0
55934.0,STARLINK-5927,PAYLOAD,2023-10-07 14:25:50,14.98335023,0.0002866,70.0013,353.5021,265.0504,95.0328,9.1779e-05,1.002e-05,0.0,0 STARLINK-5927,1 55934U 23037W   23280.60128099  .00001002  00000-0  91779-4 0  9991,2 55934  70.0013 353.5021 0002866 265.0504  95.0328 14.98335023 31898,6950.177,96.107,574.034,570.05,0.0
55934.0,STARLINK-5927,PAYLOAD,2023-10-08 11:15:36,14.98327082,0.0002945,70.0011,351.314,271.1794,88.9028,4.596e-05,4.55e-06,0.0,0 STARLINK-5927,1 55934U 23037W   23281.46916836  .00000455  00000-0  45960-4 0  9992,2 55934  70.0011 351.3140 0002945 271.1794  88.9028 14.98327082 32021,6950.202,96.107,574.114,570.02,0.0
55934.0,STARLINK-5927,PAYLOAD,2023-10-08 12:51:44,14.98327211,0.0002926,70.0012,351.1457,271.159,88.9233,4.6677e-05,4.64e-06,0.0,0 STARLINK-5927,1 55934U 23037W   23281.53592837  .00000464  00000-0  46677-4 0  9997,2 55934  70.0012 351.1457 0002926 271.1590  88.9233 14.98327211 31698,6950.202,96.107,574.1,570.033,0.0
55934.0,STARLINK-5927,PAYLOAD,2023-10-08 14:27:52,14.98327527,0.000277,70.0016,350.9777,270.1633,89.9209,5.9453e-05,6.16e-06,0.0,0 STARLINK-5927,1 55934U 23037W   23281.60268819  .00000616  00000-0  59453-4 0  9990,2 55934  70.0016 350.9777 0002770 270.1633  89.9209 14.98327527 31704,6950.201,96.107,573.991,570.14,0.0
55934.0,STARLINK-5927,PAYLOAD,2023-10-09 12:53:44,14.98335033,0.0002864,70.0015,348.6211,270.469,89.6141,9.5867e-06,2.1e-07,0.0,0 STARLINK-5927,1 55934U 23037W   23282.53732454  .00000021  00000-0  95867-5 0  9994,2 55934  70.0015 348.6211 0002864 270.4690  89.6141 14.98335033 31848,6950.177,96.107,574.033,570.052,0.0
55934.0,STARLINK-5927,PAYLOAD,2023-10-09 14:29:52,14.98335189,0.0002737,70.0014,348.4527,267.4818,92.6028,3.5409e-05,3.3e-06,0.0,0 STARLINK-5927,1 55934U 23037W   23282.60408356  .00000330  00000-0  35409-4 0  9991,2 55934  70.0014 348.4527 0002737 267.4818  92.6028 14.98335189 32191,6950.177,96.107,573.944,570.14,0.0
55934.0,STARLINK-5927,PAYLOAD,2023-10-10 12:55:45,14.98336971,0.0002843,70.0011,346.0964,270.9868,89.0965,0.00012354,1.382e-05,0.0,0 STARLINK-5927,1 55934U 23037W   23283.53871722  .00001382  00000-0  12354-3 0  9996,2 55934  70.0011 346.0964 0002843 270.9868  89.0965 14.98336971 31996,6950.171,96.107,574.012,570.06,0.0
55934.0,STARLINK-5927,PAYLOAD,2023-10-10 14:31:53,14.9833901,0.0002819,70.0012,345.9279,270.8154,89.2683,0.0001455,1.644e-05,0.0,0 STARLINK-5927,1 55934U 23037W   23283.60547502  .00001644  00000-0  14550-3 0  9991,2 55934  70.0012 345.9279 0002819 270.8154  89.2683 14.98339010 32340,6950.165,96.106,573.989,570.071,0.0
55934.0,STARLINK-5927,PAYLOAD,2023-10-11 09:45:31,14.98323246,0.0002477,70.0027,343.9105,256.6656,103.4227,-2.5869e-05,-4.01e-06,0.0,0 STARLINK-5927,1 55934U 23037W   23284.40660953 -.00000401  00000-0 -25869-4 0  9994,2 55934  70.0027 343.9105 0002477 256.6656 103.4227 14.98323246 32461,6950.214,96.107,573.8,570.357,0.0
55934.0,STARLINK-5927,PAYLOAD,2023-10-11 12:57:47,14.98321747,0.0002285,70.0026,343.5744,256.8002,103.2902,-7.1224e-05,-9.42e-06,0.0,0 STARLINK-5927,1 55934U 23037W   23284.54013274 -.00000942  00000-0 -71224-4 0  9993,2 55934  70.0026 343.5744 0002285 256.8002 103.2902 14.98321747 32146,6950.218,96.108,573.672,570.495,0.0
55934.0,STARLINK-5927,PAYLOAD,2023-10-12 12:59:47,14.98333693,0.0002727,70.0009,341.0467,269.3134,90.7713,-9.424e-06,-2.05e-06,0.0,0 STARLINK-5927,1 55934U 23037W   23285.54152297 -.00000205  00000-0 -94240-5 0  9999,2 55934  70.0009 341.0467 0002727 269.3134  90.7713 14.98333693 32297,6950.181,96.107,573.942,570.151,0.0
55934.0,STARLINK-5927,PAYLOAD,2023-10-13 13:01:48,14.98326266,0.0002544,70.0011,338.5215,267.0141,93.0727,0.00011143,1.237e-05,0.0,0 STARLINK-5927,1 55934U 23037W   23286.54292443  .00001237  00000-0  11143-3 0  9991,2 55934  70.0011 338.5215 0002544 267.0141  93.0727 14.98326266 32785,6950.204,96.107,573.838,570.301,0.0
55934.0,STARLINK-5927,PAYLOAD,2023-10-13 21:02:29,14.98329201,0.0002678,70.0012,337.6794,273.7671,86.3181,2.7948e-05,2.41e-06,0.0,0 STARLINK-5927,1 55934U 23037W   23286.87672513  .00000241  00000-0  27948-4 0  9992,2 55934  70.0012 337.6794 0002678 273.7671  86.3181 14.98329201 32497,6950.195,96.107,573.922,570.199,0.0
55934.0,STARLINK-5927,PAYLOAD,2023-10-14 09:51:32,14.98336435,0.00028,70.0006,336.3324,269.5377,90.5462,6.9764e-05,7.4e-06,0.0,0 STARLINK-5927,1 55934U 23037W   23287.41079761  .00000740  00000-0  69764-4 0  9995,2 55934  70.0006 336.3324 0002800 269.5377  90.5462 14.98336435 32911,6950.173,96.107,573.984,570.092,0.0
55934.0,STARLINK-5927,PAYLOAD,2023-10-14 13:03:48,14.98336487,0.0002675,70.0006,335.9956,267.5711,92.5142,7.032e-05,7.46e-06,0.0,0 STARLINK-5927,1 55934U 23037W   23287.54431702  .00000746  00000-0  70320-4 0  9992,2 55934  70.0006 335.9956 0002675 267.5711  92.5142 14.98336487 32595,6950.173,96.107,573.897,570.179,0.0
55934.0,STARLINK-5927,PAYLOAD,2023-10-14 21:04:30,14.98329607,0.000254,70.0016,335.1523,275.735,84.3519,-9.0635e-05,-1.174e-05,0.0,0 STARLINK-5927,1 55934U 23037W   23287.87812584 -.00001174  00000-0 -90635-4 0  9998,2 55934  70.0016 335.1523 0002540 275.7350  84.3519 14.98329607 32648,6950.194,96.107,573.824,570.294,0.0
55934.0,STARLINK-5927,PAYLOAD,2023-10-15 03:29:02,14.98325885,0.0002527,70.0016,334.4792,264.1078,95.9793,-5.9482e-05,-8.02e-06,0.0,0 STARLINK-5927,1 55934U 23037W   23288.14516732 -.00000802  00000-0 -59482-4 0  9997,2 55934  70.0016 334.4792 0002527 264.1078  95.9793 14.98325885 33021,6950.206,96.107,573.827,570.314,0.0
55934.0,STARLINK-5927,PAYLOAD,2023-10-15 13:05:51,14.98316585,0.0002651,70.0005,333.47,266.1319,93.9537,-0.00010302,-1.321e-05,0.0,0 STARLINK-5927,1 55934U 23037W   23288.54573647 -.00001321  00000-0 -10302-3 0  9993,2 55934  70.0005 333.4700 0002651 266.1319  93.9537 14.98316585 33082,6950.234,96.108,573.942,570.257,0.0
55934.0,STARLINK-5927,PAYLOAD,2023-10-16 08:19:27,14.9833012,0.0002972,69.9997,331.451,271.1737,88.9081,-1.0754e-05,-2.21e-06,0.0,0 STARLINK-5927,1 55934U 23037W   23289.34684681 -.00000221  00000-0 -10754-4 0  9993,2 55934  69.9997 331.4510 0002972 271.1737  88.9081 14.98330120 33205,6950.193,96.107,574.123,569.992,0.0
55934.0,STARLINK-5927,PAYLOAD,2023-10-16 13:07:51,14.98335688,0.0002947,69.9998,330.9472,270.2067,89.8754,3.4443e-05,3.18e-06,0.0,0 STARLINK-5927,1 55934U 23037W   23289.54712182  .00000318  00000-0  34443-4 0  9999,2 55934  69.9998 330.9472 0002947 270.2067  89.8754 14.98335688 32890,6950.175,96.107,574.089,569.992,0.0
55934.0,STARLINK-5927,PAYLOAD,2023-10-17 11:33:44,14.98328091,0.0002761,70.0,328.5908,273.2309,86.8534,0.00018777,2.148e-05,0.0,0 STARLINK-5927,1 55934U 23037W   23290.48176237  .00002148  00000-0  18777-3 0  9993,2 55934  70.0000 328.5908 0002761 273.2309  86.8534 14.98328091 33030,6950.199,96.107,573.983,570.145,0.0
55934.0,STARLINK-5927,PAYLOAD,2023-10-18 01:58:56,14.98333759,0.000248,70.0005,327.0755,269.3114,90.7761,2.7876e-05,2.4e-06,0.0,0 STARLINK-5927,1 55934U 23037W   23291.08260292  .00000240  00000-0  27876-4 0  9997,2 55934  70.0005 327.0755 0002480 269.3114  90.7761 14.98333759 33120,6950.181,96.107,573.77,570.323,0.0
55934.0,STARLINK-5927,PAYLOAD,2023-10-18 11:35:45,14.98331137,0.0002629,70.0001,326.0657,269.4659,90.6199,-1.3547e-05,-2.55e-06,0.0,0 STARLINK-5927,1 55934U 23037W   23291.48316468 -.00000255  00000-0 -13547-4 0  9996,2 55934  70.0001 326.0657 0002629 269.4659  90.6199 14.98331137 33522,6950.189,96.107,573.882,570.227,0.0
55934.0,STARLINK-5927,PAYLOAD,2023-10-19 11:37:45,14.98335473,0.0002662,69.9999,323.5407,266.3469,93.7386,-2.4465e-06,-1.22e-06,0.0,0 STARLINK-5927,1 55934U 23037W   23292.48455784 -.00000122  00000-0 -24465-5 0  9997,2 55934  69.9999 323.5407 0002662 266.3469  93.7386 14.98335473 33677,6950.176,96.107,573.891,570.191,0.0
55934.0,STARLINK-5927,PAYLOAD,2023-10-19 19:38:26,14.98332246,0.0002418,70.0007,322.6983,286.7367,73.3527,-7.1127e-05,-9.41e-06,0.0,0 STARLINK-5927,1 55934U 23037W   23292.81836314 -.00000941  00000-0 -71127-4 0  9991,2 55934  70.0007 322.6983 0002418 286.7367  73.3527 14.98332246 33385,6950.186,96.107,573.732,570.37,0.0
55934.0,STARLINK-5927,PAYLOAD,2023-10-20 05:15:15,14.98325365,0.0002786,69.9994,321.6885,274.5064,85.5776,-3.8133e-05,-5.48e-06,0.0,0 STARLINK-5927,1 55934U 23037W   23293.21892473 -.00000548  00000-0 -38133-4 0  9997,2 55934  69.9994 321.6885 0002786 274.5064  85.5776 14.98325365 33783,6950.207,96.107,574.009,570.136,0.0
55934.0,STARLINK-5927,PAYLOAD,2023-10-20 11:39:47,14.98324568,0.0002724,69.9995,321.0149,272.5548,87.5299,-5.3579e-05,-7.32e-06,0.0,0 STARLINK-5927,1 55934U 23037W   23293.48596633 -.00000732  00000-0 -53579-4 0  9991,2 55934  69.9995 321.0149 0002724 272.5548  87.5299 14.98324568 33481,6950.21,96.107,573.968,570.181,0.0
55934.0,STARLINK-5927,PAYLOAD,2023-10-21 11:41:48,14.98330764,0.0002811,69.9995,318.4892,271.0665,89.0172,-2.0887e-05,-3.42e-06,0.0,0 STARLINK-5927,1 55934U 23037W   23294.48736276 -.00000342  00000-0 -20887-4 0  9994,2 55934  69.9995 318.4892 0002811 271.0665  89.0172 14.98330764 33973,6950.191,96.107,574.009,570.102,0.0
